[{"OBJECT_NAME":"ASRTU-1 (AO-123)","OBJECT_ID":"2024-199AY","EPOCH":"2026-03-09T22:36:42.151392","MEAN_MOTION":15.34070057,"ECCENTRICITY":0.0012786,"INCLINATION":97.3152,"RA_OF_ASC_NODE":298.5256,"ARG_OF_PERICENTER":309.3392,"MEAN_ANOMALY":50.6717,"EPHEMERIS_TYPE":0,"CLASSIFICATION_TYPE":"U","NORAD_CAT_ID":61781,"ELEMENT_SET_NO":999,"REV_AT_EPOCH":11870,"BSTAR":0.00032267684,"MEAN_MOTION_DOT":0.00010589,"MEAN_MOTION_DDOT":0},{"OBJECT_NAME":"STARLINK-35339","OBJECT_ID":"2025-232Z","EPOCH":"2026-03-09T08:45:21.216096","MEAN_MOTION":15.30227089,"ECCENTRICITY":0.00012993,"INCLINATION":53.1593,"RA_OF_ASC_NODE":105.5608,"ARG_OF_PERICENTER":92.8221,"MEAN_ANOMALY":267.2929,"EPHEMERIS_TYPE":0,"CLASSIFICATION_TYPE":"U","NORAD_CAT_ID":66028,"ELEMENT_SET_NO":999,"REV_AT_EPOCH":2338,"BSTAR":0.00081322377,"MEAN_MOTION_DOT":0.00023824,"MEAN_MOTION_DDOT":0}]
